IRIDIUM 921 [-]         
1 24873U 97034E   24054.29885827  .00019415  00000+0  62234-3 0  9990
2 24873  86.3893 344.6473 0004206  25.2265 334.9189 15.32229272457556
IRIDIUM 26 [-]          
1 24903U 97043A   24054.44743134  .00000498  00000+0  16410-3 0  9991
2 24903  86.3974 311.9308 0001926  87.5473 272.5944 14.36218735387869
IRIDIUM 22 [-]          
1 24907U 97043E   24054.48431700  .00000492  00000+0  16573-3 0  9996
2 24907  86.3983 315.0611 0002140  83.8082 276.3358 14.35115427387953
DUMMY MASS 1 [-]        
1 24925U 97048A   24054.59320970  .00000777  00000+0  85559-4 0  9996
2 24925  86.3395 356.9233 0008794  57.0832 303.1237 14.86063796433887
DUMMY MASS 2 [-]        
1 24926U 97048B   24054.54390514  .00000768  00000+0  85053-4 0  9992
2 24926  86.3394 358.4676 0009826  64.8739 295.3503 14.85822962433665
IRIDIUM 29 [-]          
1 24944U 97051A   24054.52342724  .00000632  00000+0  21279-3 0  9993
2 24944  86.4011 344.9715 0002316  80.2723 279.8735 14.35570987384434
IRIDIUM 33 [-]          
1 24946U 97051C   24054.86291197  .00000437  00000+0  14894-3 0  9997
2 24946  86.3927 344.0905 0007212 187.1161 172.9934 14.34269216384035
IRIDIUM 28 [-]          
1 24948U 97051E   24054.53346414  .00000645  00000+0  21309-3 0  9996
2 24948  86.4016 342.7599 0001915  95.1116 265.0300 14.36519434384968
